{
  "type": "FeatureCollection",
  "features": [
    {
      "type": "Feature",
      "properties": {
        "norad_id": 31088,
        "name": "FENGYUN 1C DEB",
        "group": "fengyun-1c-debris",
        "lat": -42.08912321867629,
        "lon": 55.49512159669415,
        "alt_km": 807.8191789838729,
        "timestamp": "2025-12-12T16:50:33.425273+00:00",
        "meta_object_name": "FENGYUN 1C DEB",
        "meta_object_id": "1999-025BGJ",
        "meta_epoch": "2025-12-10T23:35:54.153024",
        "meta_mean_motion": 14.28673975,
        "meta_eccentricity": 0.0028747,
        "meta_inclination": 99.411,
        "meta_ra_of_asc_node": 45.0274,
        "meta_arg_of_pericenter": 66.9057,
        "meta_mean_anomaly": 56.8691,
        "meta_ephemeris_type": 0,
        "meta_classification_type": "U",
        "meta_norad_cat_id": 31088,
        "meta_element_set_no": 999,
        "meta_rev_at_epoch": 96524,
        "meta_bstar": 0.0023648,
        "meta_mean_motion_dot": 5.925e-05,
        "meta_mean_motion_ddot": 0,
        "tle_line1": "1 31088U 99025BGJ 25344.98326566  .00005925  00000+0  23648-2 0  9993",
        "tle_line2": "2 31088  99.4110  45.0274 0028747  66.9057  56.8691 14.28673975965242"
      },
      "geometry": {
        "type": "Point",
        "coordinates": [
          55.49512159669415,
          -42.08912321867629
        ]
      }
    },
    {
      "type": "Feature",
      "properties": {
        "norad_id": 31089,
        "name": "FENGYUN 1C DEB",
        "group": "fengyun-1c-debris",
        "lat": 56.16868792317361,
        "lon": 115.15961608142891,
        "alt_km": 1064.3188563183503,
        "timestamp": "2025-12-12T16:50:33.425283+00:00",
        "meta_object_name": "FENGYUN 1C DEB",
        "meta_object_id": "1999-025BGK",
        "meta_epoch": "2025-12-07T21:25:32.147616",
        "meta_mean_motion": 13.88305057,
        "meta_eccentricity": 0.02058957,
        "meta_inclination": 98.9488,
        "meta_ra_of_asc_node": 124.1407,
        "meta_arg_of_pericenter": 224.7678,
        "meta_mean_anomaly": 291.3696,
        "meta_ephemeris_type": 0,
        "meta_classification_type": "U",
        "meta_norad_cat_id": 31089,
        "meta_element_set_no": 999,
        "meta_rev_at_epoch": 67992,
        "meta_bstar": 0.0012224374,
        "meta_mean_motion_dot": 1.69e-05,
        "meta_mean_motion_ddot": 0,
        "tle_line1": "1 31089U 99025BGK 25341.89273319  .00001690  00000+0  12224-2 0  9991",
        "tle_line2": "2 31089  98.9488 124.1407 0205895 224.7678 291.3696 13.88305057679922"
      },
      "geometry": {
        "type": "Point",
        "coordinates": [
          115.15961608142891,
          56.16868792317361
        ]
      }
    },
    {
      "type": "Feature",
      "properties": {
        "norad_id": 31090,
        "name": "FENGYUN 1C DEB",
        "group": "fengyun-1c-debris",
        "lat": 64.85208337483773,
        "lon": -69.57937146534942,
        "alt_km": 423.36330667694347,
        "timestamp": "2025-12-12T16:50:33.425293+00:00",
        "meta_object_name": "FENGYUN 1C DEB",
        "meta_object_id": "1999-025BGL",
        "meta_epoch": "2025-12-11T05:53:35.054304",
        "meta_mean_motion": 15.33134281,
        "meta_eccentricity": 0.0055666,
        "meta_inclination": 98.9821,
        "meta_ra_of_asc_node": 88.9633,
        "meta_arg_of_pericenter": 137.8402,
        "meta_mean_anomaly": 222.7137,
        "meta_ephemeris_type": 0,
        "meta_classification_type": "U",
        "meta_norad_cat_id": 31090,
        "meta_element_set_no": 999,
        "meta_rev_at_epoch": 815,
        "meta_bstar": 0.0031830871,
        "meta_mean_motion_dot": 0.00108298,
        "meta_mean_motion_ddot": 0,
        "tle_line1": "1 31090U 99025BGL 25345.24554461  .00108298  00000+0  31831-2 0  9993",
        "tle_line2": "2 31090  98.9821  88.9633 0055666 137.8402 222.7137 15.33134281  8151"
      },
      "geometry": {
        "type": "Point",
        "coordinates": [
          -69.57937146534942,
          64.85208337483773
        ]
      }
    },
    {
      "type": "Feature",
      "properties": {
        "norad_id": 31091,
        "name": "FENGYUN 1C DEB",
        "group": "fengyun-1c-debris",
        "lat": -51.45383828173685,
        "lon": -24.47372359720303,
        "alt_km": 861.7629455337619,
        "timestamp": "2025-12-12T16:50:33.425307+00:00",
        "meta_object_name": "FENGYUN 1C DEB",
        "meta_object_id": "1999-025BGM",
        "meta_epoch": "2025-12-10T04:47:50.827776",
        "meta_mean_motion": 13.54141266,
        "meta_eccentricity": 0.02908089,
        "meta_inclination": 99.2244,
        "meta_ra_of_asc_node": 321.4211,
        "meta_arg_of_pericenter": 335.4456,
        "meta_mean_anomaly": 23.3063,
        "meta_ephemeris_type": 0,
        "meta_classification_type": "U",
        "meta_norad_cat_id": 31091,
        "meta_element_set_no": 999,
        "meta_rev_at_epoch": 61605,
        "meta_bstar": 0.0012568098,
        "meta_mean_motion_dot": 1.075e-05,
        "meta_mean_motion_ddot": 0,
        "tle_line1": "1 31091U 99025BGM 25344.19989384  .00001075  00000+0  12568-2 0  9994",
        "tle_line2": "2 31091  99.2244 321.4211 0290808 335.4456  23.3063 13.54141266616055"
      },
      "geometry": {
        "type": "Point",
        "coordinates": [
          -24.47372359720303,
          -51.45383828173685
        ]
      }
    },
    {
      "type": "Feature",
      "properties": {
        "norad_id": 31092,
        "name": "FENGYUN 1C DEB",
        "group": "fengyun-1c-debris",
        "lat": -43.814193387464435,
        "lon": 111.98108361340915,
        "alt_km": 1335.7265398308045,
        "timestamp": "2025-12-12T16:50:33.425318+00:00",
        "meta_object_name": "FENGYUN 1C DEB",
        "meta_object_id": "1999-025BGN",
        "meta_epoch": "2025-11-15T07:00:52.552224",
        "meta_mean_motion": 13.46401433,
        "meta_eccentricity": 0.03278725,
        "meta_inclination": 99.7115,
        "meta_ra_of_asc_node": 75.9227,
        "meta_arg_of_pericenter": 204.4209,
        "meta_mean_anomaly": 154.1084,
        "meta_ephemeris_type": 0,
        "meta_classification_type": "U",
        "meta_norad_cat_id": 31092,
        "meta_element_set_no": 999,
        "meta_rev_at_epoch": 91512,
        "meta_bstar": 0.0042000132,
        "meta_mean_motion_dot": 3.457e-05,
        "meta_mean_motion_ddot": 0,
        "tle_line1": "1 31092U 99025BGN 25319.29227491  .00003457  00000+0  42000-2 0  9992",
        "tle_line2": "2 31092  99.7115  75.9227 0327872 204.4209 154.1084 13.46401433915121"
      },
      "geometry": {
        "type": "Point",
        "coordinates": [
          111.98108361340915,
          -43.814193387464435
        ]
      }
    },
    {
      "type": "Feature",
      "properties": {
        "norad_id": 31093,
        "name": "FENGYUN 1C DEB",
        "group": "fengyun-1c-debris",
        "lat": 75.21609048241496,
        "lon": 40.66851218001783,
        "alt_km": 1031.4109480867892,
        "timestamp": "2025-12-12T16:50:33.425339+00:00",
        "meta_object_name": "FENGYUN 1C DEB",
        "meta_object_id": "1999-025BGP",
        "meta_epoch": "2025-12-12T00:40:42.308544",
        "meta_mean_motion": 13.80631235,
        "meta_eccentricity": 0.02082019,
        "meta_inclination": 98.5948,
        "meta_ra_of_asc_node": 185.0918,
        "meta_arg_of_pericenter": 225.1214,
        "meta_mean_anomaly": 133.2872,
        "meta_ephemeris_type": 0,
        "meta_classification_type": "U",
        "meta_norad_cat_id": 31093,
        "meta_element_set_no": 999,
        "meta_rev_at_epoch": 94497,
        "meta_bstar": 0.00063492544,
        "meta_mean_motion_dot": 7.45e-06,
        "meta_mean_motion_ddot": 0,
        "tle_line1": "1 31093U 99025BGP 25346.02826746  .00000745  00000+0  63493-3 0  9999",
        "tle_line2": "2 31093  98.5948 185.0918 0208201 225.1214 133.2872 13.80631235944974"
      },
      "geometry": {
        "type": "Point",
        "coordinates": [
          40.66851218001783,
          75.21609048241496
        ]
      }
    },
    {
      "type": "Feature",
      "properties": {
        "norad_id": 31094,
        "name": "FENGYUN 1C DEB",
        "group": "fengyun-1c-debris",
        "lat": -45.06291359726295,
        "lon": 25.568669319555397,
        "alt_km": 970.729131693507,
        "timestamp": "2025-12-12T16:50:33.425350+00:00",
        "meta_object_name": "FENGYUN 1C DEB",
        "meta_object_id": "1999-025BGQ",
        "meta_epoch": "2025-12-12T02:04:19.594560",
        "meta_mean_motion": 14.02038873,
        "meta_eccentricity": 0.01064654,
        "meta_inclination": 98.856,
        "meta_ra_of_asc_node": 213.9601,
        "meta_arg_of_pericenter": 48.8046,
        "meta_mean_anomaly": 312.224,
        "meta_ephemeris_type": 0,
        "meta_classification_type": "U",
        "meta_norad_cat_id": 31094,
        "meta_element_set_no": 999,
        "meta_rev_at_epoch": 95610,
        "meta_bstar": 0.002208045,
        "meta_mean_motion_dot": 3.5e-05,
        "meta_mean_motion_ddot": 0,
        "tle_line1": "1 31094U 99025BGQ 25346.08633790  .00003500  00000+0  22080-2 0  9999",
        "tle_line2": "2 31094  98.8560 213.9601 0106465  48.8046 312.2240 14.02038873956100"
      },
      "geometry": {
        "type": "Point",
        "coordinates": [
          25.568669319555397,
          -45.06291359726295
        ]
      }
    }
  ]
}